CTC1_L_00182016-03
1 38648U 22129FD  26070.40833333  .00000000  00000+0  00000-0 0  9996
2 38648 100.0000 180.0000 0000000   0.0000   0.0000 13.89609395    15
CTC1_L_00182016-04
1 38649U 24382RY  26070.40833333  .00000000  00000+0  00000-0 0  9990
2 38649 100.0000 180.0000 0000000   0.0000  90.0000 13.89609395    15
CTC1_L_00182017-01
1 38650U 25040HI  26070.40833333  .00000000  00000+0  00000-0 0  9994
2 38650 100.0000 192.0000 0000000   0.0000 192.0000 13.89609395    13
CTC1_L_00182017-02
1 38651U 25056QC  26070.40833333  .00000000  00000+0  00000-0 0  9992
2 38651 100.0000 192.0000 0000000   0.0000 282.0000 13.89609395    14
CTC1_L_00182017-03
1 38652U 25758UQ  26070.40833333  .00000000  00000+0  00000-0 0  9992
2 38652 100.0000 192.0000 0000000   0.0000  12.0000 13.89609395    16
CTC1_L_00182017-04
1 38653U 22931MD  26070.40833333  .00000000  00000+0  00000-0 0  9993
2 38653 100.0000 192.0000 0000000   0.0000 102.0000 13.89609395    17
CTC1_L_00182018-01
1 38654U 26111QE  26070.40833333  .00000000  00000+0  00000-0 0  9998
2 38654 100.0000 204.0000 0000000   0.0000 204.0000 13.89609395    15
CTC1_L_00182018-02
1 38655U 22744PH  26070.40833333  .00000000  00000+0  00000-0 0  9997
2 38655 100.0000 204.0000 0000000   0.0000 294.0000 13.89609395    15
CTC1_L_00182018-03
1 38656U 22958SM  26070.40833333  .00000000  00000+0  00000-0 0  9995
2 38656 100.0000 204.0000 0000000   0.0000  24.0000 13.89609395    17
CTC1_L_00182018-04
1 38657U 23241TW  26070.40833333  .00000000  00000+0  00000-0 0  9992
2 38657 100.0000 204.0000 0000000   0.0000 114.0000 13.89609395    18
CTC1_L_00182019-01
1 38658U 26804PG  26070.40833333  .00000000  00000+0  00000-0 0  9991
2 38658 100.0000 216.0000 0000000   0.0000 216.0000 13.89609395    15
CTC1_L_00182019-02
1 38659U 25306LW  26070.40833333  .00000000  00000+0  00000-0 0  9998
2 38659 100.0000 216.0000 0000000   0.0000 306.0000 13.89609395    16
CTC1_L_00182019-03
1 38660U 26618EW  26070.40833333  .00000000  00000+0  00000-0 0  9997
2 38660 100.0000 216.0000 0000000   0.0000  36.0000 13.89609395    18
CTC1_L_00182019-04
1 38661U 25823EK  26070.40833333  .00000000  00000+0  00000-0 0  9995
2 38661 100.0000 216.0000 0000000   0.0000 126.0000 13.89609395    19
CTC1_L_00182020-01
1 38662U 25713KA  26070.40833333  .00000000  00000+0  00000-0 0  9994
2 38662 100.0000 228.0000 0000000   0.0000 228.0000 13.89609395    16
CTC1_L_00182020-02
1 38663U 25981HK  26070.40833333  .00000000  00000+0  00000-0 0  9992
2 38663 100.0000 228.0000 0000000   0.0000 318.0000 13.89609395    17
CTC1_L_00182020-03
1 38664U 23489ZH  26070.40833333  .00000000  00000+0  00000-0 0  9994
2 38664 100.0000 228.0000 0000000   0.0000  48.0000 13.89609395    18
CTC1_L_00182020-04
1 38665U 24606PV  26070.40833333  .00000000  00000+0  00000-0 0  9997
2 38665 100.0000 228.0000 0000000   0.0000 138.0000 13.89609395    19
CTC1_L_00182021-01
1 38666U 26218BV  26070.40833333  .00000000  00000+0  00000-0 0  9999
2 38666 100.0000 240.0000 0000000   0.0000 240.0000 13.89609395    18
CTC1_L_00182021-02
1 38667U 26182JF  26070.40833333  .00000000  00000+0  00000-0 0  9990
2 38667 100.0000 240.0000 0000000   0.0000 330.0000 13.89609395    19
CTC1_L_00182021-03
1 38668U 22519EW  26070.40833333  .00000000  00000+0  00000-0 0  9991
2 38668 100.0000 240.0000 0000000   0.0000  60.0000 13.89609395    10
CTC1_L_00182021-04
1 38669U 22598DS  26070.40833333  .00000000  00000+0  00000-0 0  9999
2 38669 100.0000 240.0000 0000000   0.0000 150.0000 13.89609395    11
CTC1_L_00182022-01
1 38670U 23825ZI  26070.40833333  .00000000  00000+0  00000-0 0  9995
2 38670 100.0000 252.0000 0000000   0.0000 252.0000 13.89609395    19
CTC1_L_00182022-02
1 38671U 26115MO  26070.40833333  .00000000  00000+0  00000-0 0  9991
2 38671 100.0000 252.0000 0000000   0.0000 342.0000 13.89609395    10
CTC1_L_00182022-03
1 38672U 23582RA  26070.40833333  .00000000  00000+0  00000-0 0  9997
2 38672 100.0000 252.0000 0000000   0.0000  72.0000 13.89609395    11
CTC1_L_00182022-04
1 38673U 26131NW  26070.40833333  .00000000  00000+0  00000-0 0  9991
2 38673 100.0000 252.0000 0000000   0.0000 162.0000 13.89609395    12
CTC1_L_00182023-01
1 38674U 25081UR  26070.40833333  .00000000  00000+0  00000-0 0  9995
2 38674 100.0000 264.0000 0000000   0.0000 264.0000 13.89609395    19
CTC1_L_00182023-02
1 38675U 26364RW  26070.40833333  .00000000  00000+0  00000-0 0  9991
2 38675 100.0000 264.0000 0000000   0.0000 354.0000 13.89609395    10
CTC1_L_00182023-03
1 38676U 24831JW  26070.40833333  .00000000  00000+0  00000-0 0  9999
2 38676 100.0000 264.0000 0000000   0.0000  84.0000 13.89609395    11
CTC1_L_00182023-04
1 38677U 23119UP  26070.40833333  .00000000  00000+0  00000-0 0  9998
2 38677 100.0000 264.0000 0000000   0.0000 174.0000 13.89609395    12
CTC1_L_00182024-01
1 38678U 26214SG  26070.40833333  .00000000  00000+0  00000-0 0  9998
2 38678 100.0000 276.0000 0000000   0.0000 276.0000 13.89609395    19
CTC1_L_00182024-02
1 38679U 26963AR  26070.40833333  .00000000  00000+0  00000-0 0  9990
2 38679 100.0000 276.0000 0000000   0.0000   6.0000 13.89609395    11
CTC1_L_00182024-03
1 38680U 25078GV  26070.40833333  .00000000  00000+0  00000-0 0  9998
2 38680 100.0000 276.0000 0000000   0.0000  96.0000 13.89609395    12
CTC1_L_00182024-04
1 38681U 25768ET  26070.40833333  .00000000  00000+0  00000-0 0  9995
2 38681 100.0000 276.0000 0000000   0.0000 186.0000 13.89609395    13
CTC1_L_00182025-01
1 38682U 23834HL  26070.40833333  .00000000  00000+0  00000-0 0  9998
2 38682 100.0000 288.0000 0000000   0.0000 288.0000 13.89609395    10
CTC1_L_00182025-02
1 38683U 26889YL  26070.40833333  .00000000  00000+0  00000-0 0  9992
2 38683 100.0000 288.0000 0000000   0.0000  18.0000 13.89609395    12
CTC1_L_00182025-03
1 38684U 22363KI  26070.40833333  .00000000  00000+0  00000-0 0  9996
2 38684 100.0000 288.0000 0000000   0.0000 108.0000 13.89609395    13
CTC1_L_00182025-04
1 38685U 25751OO  26070.40833333  .00000000  00000+0  00000-0 0  9991
2 38685 100.0000 288.0000 0000000   0.0000 198.0000 13.89609395    13
CTC1_L_00182026-01
1 38686U 22143WK  26070.40833333  .00000000  00000+0  00000-0 0  9994
2 38686 100.0000 300.0000 0000000   0.0000 300.0000 13.89609395    14
CTC1_L_00182026-02
1 38687U 26110JX  26070.40833333  .00000000  00000+0  00000-0 0  9993
2 38687 100.0000 300.0000 0000000   0.0000  30.0000 13.89609395    15
CTC1_L_00182026-03
1 38688U 26018BU  26070.40833333  .00000000  00000+0  00000-0 0  9991
2 38688 100.0000 300.0000 0000000   0.0000 120.0000 13.89609395    16
CTC1_L_00182026-04
1 38689U 23864AK  26070.40833333  .00000000  00000+0  00000-0 0  9998
2 38689 100.0000 300.0000 0000000   0.0000 210.0000 13.89609395    17
CTC1_L_00182027-01
1 38690U 26578MJ  26070.40833333  .00000000  00000+0  00000-0 0  9995
2 38690 100.0000 312.0000 0000000   0.0000 312.0000 13.89609395    15
CTC1_L_00182027-02
1 38691U 22721ZR  26070.40833333  .00000000  00000+0  00000-0 0  9992
2 38691 100.0000 312.0000 0000000   0.0000  42.0000 13.89609395    16
CTC1_L_00182027-03
1 38692U 23010DP  26070.40833333  .00000000  00000+0  00000-0 0  9995
2 38692 100.0000 312.0000 0000000   0.0000 132.0000 13.89609395    17
CTC1_L_00182027-04
1 38693U 25489TX  26070.40833333  .00000000  00000+0  00000-0 0  9998
2 38693 100.0000 312.0000 0000000   0.0000 222.0000 13.89609395    18
CTC1_L_00182028-01
1 38694U 24019LP  26070.40833333  .00000000  00000+0  00000-0 0  9997
2 38694 100.0000 324.0000 0000000   0.0000 324.0000 13.89609395    15
CTC1_L_00182028-02
1 38695U 22074VL  26070.40833333  .00000000  00000+0  00000-0 0  9997
2 38695 100.0000 324.0000 0000000   0.0000  54.0000 13.89609395    16
CTC1_L_00182028-03
1 38696U 25375JZ  26070.40833333  .00000000  00000+0  00000-0 0  9995
2 38696 100.0000 324.0000 0000000   0.0000 144.0000 13.89609395    17
CTC1_L_00182028-04
1 38697U 24940XE  26070.40833333  .00000000  00000+0  00000-0 0  9993
2 38697 100.0000 324.0000 0000000   0.0000 234.0000 13.89609395    18
CTC1_L_00182029-01
1 38698U 26241IH  26070.40833333  .00000000  00000+0  00000-0 0  9990
2 38698 100.0000 336.0000 0000000   0.0000 336.0000 13.89609395    15
CTC1_L_00182029-02
1 38699U 22620JH  26070.40833333  .00000000  00000+0  00000-0 0  9998
2 38699 100.0000 336.0000 0000000   0.0000  66.0000 13.89609395    16
CTC1_L_00182029-03
1 38700U 23670PN  26070.40833333  .00000000  00000+0  00000-0 0  9997
2 38700 100.0000 336.0000 0000000   0.0000 156.0000 13.89609395    19
CTC1_L_00182029-04
1 38701U 23320FK  26070.40833333  .00000000  00000+0  00000-0 0  9990
2 38701 100.0000 336.0000 0000000   0.0000 246.0000 13.89609395    10
CTC1_L_00182030-01
1 38702U 26778RJ  26070.40833333  .00000000  00000+0  00000-0 0  9991
2 38702 100.0000 348.0000 0000000   0.0000 348.0000 13.89609395    17
CTC1_L_00182030-02
1 38703U 24708BO  26070.40833333  .00000000  00000+0  00000-0 0  9993
2 38703 100.0000 348.0000 0000000   0.0000  78.0000 13.89609395    18
CTC1_L_00182030-03
1 38704U 24731QE  26070.40833333  .00000000  00000+0  00000-0 0  9990
2 38704 100.0000 348.0000 0000000   0.0000 168.0000 13.89609395    19
CTC1_L_00182030-04
1 38705U 24399UJ  26070.40833333  .00000000  00000+0  00000-0 0  9991
2 38705 100.0000 348.0000 0000000   0.0000 258.0000 13.89609395    10
